$$SOE
2460728.500000000, A.D. 2025-Feb-22 00:00:00.0000, 7.033739639781092E+07, 4.663432108869753E+08, -1.147241837668012E+08,
2460735.500000000, A.D. 2025-Mar-01 00:00:00.0000, 6.059848043967067E+07, 4.681911490792316E+08, -1.140274460823369E+08,
2460742.500000000, A.D. 2025-Mar-08 00:00:00.0000, 5.083393509998190E+07, 4.698410538148699E+08, -1.132822226426859E+08,
2460749.500000000, A.D. 2025-Mar-15 00:00:00.0000, 4.104794503502233E+07, 4.712925958378944E+08, -1.124889183117739E+08,
2460756.500000000, A.D. 2025-Mar-22 00:00:00.0000, 3.124468716954917E+07, 4.725455299913453E+08, -1.116479561069071E+08,
2460763.500000000, A.D. 2025-Mar-29 00:00:00.0000, 2.142832825825114E+07, 4.735996928716336E+08, -1.107597769663419E+08,
2460770.500000000, A.D. 2025-Apr-05 00:00:00.0000, 1.160302416859004E+07, 4.744550013446062E+08, -1.098248395957996E+08,
2460777.500000000, A.D. 2025-Apr-12 00:00:00.0000, 1.772918960170631E+06, 4.751114520284215E+08, -1.088436202093681E+08,
2460784.500000000, A.D. 2025-Apr-19 00:00:00.0000, -8.057856426409337E+06, 4.755691208624358E+08, -1.078166122198020E+08,
2460791.500000000, A.D. 2025-Apr-26 00:00:00.0000, -1.788518559970089E+07, 4.758281625601723E+08, -1.067443259200990E+08,
2460798.500000000, A.D. 2025-May-03 00:00:00.0000, -2.770496815290240E+07, 4.758888099669017E+08, -1.056272881656888E+08,
2460805.500000000, A.D. 2025-May-10 00:00:00.0000, -3.751312107611708E+07, 4.757513733318272E+08, -1.044660420596146E+08,
2460812.500000000, A.D. 2025-May-17 00:00:00.0000, -4.730558010864712E+07, 4.754162394550732E+08, -1.032611466478423E+08,
2460819.500000000, A.D. 2025-May-24 00:00:00.0000, -5.707830085751412E+07, 4.748838706561553E+08, -1.020131766454648E+08,
2460826.500000000, A.D. 2025-May-31 00:00:00.0000, -6.682725926475050E+07, 4.741548038761677E+08, -1.007227222071092E+08,
2460833.500000000, A.D. 2025-Jun-07 00:00:00.0000, -7.654845182468604E+07, 4.732296511203187E+08, -9.939038860699479E+07,
2460840.500000000, A.D. 2025-Jun-14 00:00:00.0000, -8.623789791498910E+07, 4.721091005753963E+08, -9.801679566679093E+07,
2460847.500000000, A.D. 2025-Jun-21 00:00:00.0000, -9.589164302428345E+07, 4.707939151299534E+08, -9.660257730964026E+07,
2460854.500000000, A.D. 2025-Jun-28 00:00:00.0000, -1.055057597499502E+08, 4.692849300624322E+08, -9.514838138309936E+07,
2460861.500000000, A.D. 2025-Jul-05 00:00:00.0000, -1.150763480834511E+08, 4.675830520563250E+08, -9.365486943670222E+07,
2460868.500000000, A.D. 2025-Jul-12 00:00:00.0000, -1.245995361737097E+08, 4.656892587381519E+08, -9.212271641105254E+07,
2460875.500000000, A.D. 2025-Jul-19 00:00:00.0000, -1.340714813791521E+08, 4.636045981635506E+08, -9.055261030280113E+07,
2460882.500000000, A.D. 2025-Jul-26 00:00:00.0000, -1.434883713990110E+08, 4.613301881955256E+08, -8.894525182946630E+07,
2460889.500000000, A.D. 2025-Aug-02 00:00:00.0000, -1.528464254190916E+08, 4.588672157973312E+08, -8.730135409846790E+07,
2460896.500000000, A.D. 2025-Aug-09 00:00:00.0000, -1.621418952491700E+08, 4.562169362262660E+08, -8.562164228383769E+07,
2460903.500000000, A.D. 2025-Aug-16 00:00:00.0000, -1.713710663757079E+08, 4.533806720661132E+08, -8.390685332290953E+07,
2460910.500000000, A.D. 2025-Aug-23 00:00:00.0000, -1.805302586379584E+08, 4.503598121156611E+08, -8.215773565851507E+07,
2460917.500000000, A.D. 2025-Aug-30 00:00:00.0000, -1.896158261994621E+08, 4.471558108484920E+08, -8.037504899860400E+07,
2460924.500000000, A.D. 2025-Sep-06 00:00:00.0000, -1.986241582338801E+08, 4.437701894462131E+08, -7.855956388183051E+07,
2460931.500000000, A.D. 2025-Sep-13 00:00:00.0000, -2.075516819951103E+08, 4.402045359237368E+08, -7.671206109879033E+07,
2460938.500000000, A.D. 2025-Sep-20 00:00:00.0000, -2.163948649973374E+08, 4.364605027008735E+08, -7.483333140241620E+07,
2460945.500000000, A.D. 2025-Sep-27 00:00:00.0000, -2.251502152476247E+08, 4.325398047310672E+08, -7.292417534973712E+07,
2460952.500000000, A.D. 2025-Oct-04 00:00:00.0000, -2.338142815485381E+08, 4.284442187272921E+08, -7.098540304598714E+07,
2460959.500000000, A.D. 2025-Oct-11 00:00:00.0000, -2.423836542448294E+08, 4.241755825418690E+08, -6.901783383353731E+07,
2460966.500000000, A.D. 2025-Oct-18 00:00:00.0000, -2.508549661318710E+08, 4.197357944255680E+08, -6.702229597396934E+07,
2460973.500000000, A.D. 2025-Oct-25 00:00:00.0000, -2.592248933880959E+08, 4.151268121779295E+08, -6.499962633555517E+07,
2460980.500000000, A.D. 2025-Nov-01 00:00:00.0000, -2.674901564933887E+08, 4.103506522060198E+08, -6.295067008907305E+07,
2460987.500000000, A.D. 2025-Nov-08 00:00:00.0000, -2.756475210996028E+08, 4.054093884619936E+08, -6.087628041818939E+07,
2460994.500000000, A.D. 2025-Nov-15 00:00:00.0000, -2.836937987056194E+08, 4.003051512021987E+08, -5.877731826302467E+07,
2461001.500000000, A.D. 2025-Nov-22 00:00:00.0000, -2.916258467345054E+08, 3.950401257886011E+08, -5.665465211594109E+07,
2461008.500000000, A.D. 2025-Nov-29 00:00:00.0000, -2.994405681667089E+08, 3.896165526679795E+08, -5.450915776285197E+07,
2461015.500000000, A.D. 2025-Dec-06 00:00:00.0000, -3.071349130078442E+08, 3.840367283940984E+08, -5.234171777263556E+07,
2461022.500000000, A.D. 2025-Dec-13 00:00:00.0000, -3.147058811570475E+08, 3.783030043235332E+08, -5.015322104989490E+07,
2461029.500000000, A.D. 2025-Dec-20 00:00:00.0000, -3.221505231821113E+08, 3.724177840069829E+08, -4.794456268722953E+07,
2461036.500000000, A.D. 2025-Dec-27 00:00:00.0000, -3.294659400770286E+08, 3.663835218671011E+08, -4.571664380675796E+07,
2461043.500000000, A.D. 2026-Jan-03 00:00:00.0000, -3.366492834626074E+08, 3.602027225490823E+08, -4.347037130770206E+07,
2461050.500000000, A.D. 2026-Jan-10 00:00:00.0000, -3.436977561205617E+08, 3.538779402664226E+08, -4.120665758548984E+07,
2461057.500000000, A.D. 2026-Jan-17 00:00:00.0000, -3.506086126285858E+08, 3.474117780510747E+08, -3.892642025089987E+07,
2461064.500000000, A.D. 2026-Jan-24 00:00:00.0000, -3.573791600186428E+08, 3.408068869314575E+08, -3.663058185424353E+07,
2461071.500000000, A.D. 2026-Jan-31 00:00:00.0000, -3.640067584351040E+08, 3.340659650316907E+08, -3.432006961704479E+07,
2461078.500000000, A.D. 2026-Feb-07 00:00:00.0000, -3.704888217312075E+08, 3.271917565353228E+08, -3.199581518123177E+07,
2461085.500000000, A.D. 2026-Feb-14 00:00:00.0000, -3.768228177507436E+08, 3.201870504985511E+08, -2.965875439999719E+07,
2461092.500000000, A.D. 2026-Feb-21 00:00:00.0000, -3.830062679076035E+08, 3.130546800898674E+08, -2.730982715845214E+07,
2461099.500000000, A.D. 2026-Feb-28 00:00:00.0000, -3.890367471490679E+08, 3.057975234094743E+08, -2.494997703022662E+07,
2461106.500000000, A.D. 2026-Mar-07 00:00:00.0000, -3.949118863630842E+08, 2.984185039393229E+08, -2.258015074071541E+07,
2461113.500000000, A.D. 2026-Mar-14 00:00:00.0000, -4.006293744537885E+08, 2.909205882918341E+08, -2.020129788204570E+07,
2461120.500000000, A.D. 2026-Mar-21 00:00:00.0000, -4.061869583017872E+08, 2.833067841540269E+08, -1.781437080598143E+07,
2461127.500000000, A.D. 2026-Mar-28 00:00:00.0000, -4.115824426202666E+08, 2.755801394551106E+08, -1.542032442632249E+07,
2461134.500000000, A.D. 2026-Apr-04 00:00:00.0000, -4.168136903121504E+08, 2.677437417928607E+08, -1.302011595433807E+07,
2461141.500000000, A.D. 2026-Apr-11 00:00:00.0000, -4.218786230546231E+08, 2.598007177593839E+08, -1.061470462148426E+07,
2461148.500000000, A.D. 2026-Apr-18 00:00:00.0000, -4.267752219516557E+08, 2.517542321594634E+08, -8.205051404166847E+06,
2461155.500000000, A.D. 2026-Apr-25 00:00:00.0000, -4.315015282086968E+08, 2.436074871358998E+08, -5.792118753174812E+06,
2461162.500000000, A.D. 2026-May-02 00:00:00.0000, -4.360556437988614E+08, 2.353637211719989E+08, -3.376870332679257E+06,
2461169.500000000, A.D. 2026-May-09 00:00:00.0000, -4.404357319959502E+08, 2.270262079048935E+08, -9.602707853230685E+05,
2461176.500000000, A.D. 2026-May-16 00:00:00.0000, -4.446400173959998E+08, 2.185982548880293E+08, 1.456714453535393E+06,
2461183.500000000, A.D. 2026-May-23 00:00:00.0000, -4.486667853748573E+08, 2.100832033250170E+08, 3.873119371481240E+06,
2461190.500000000, A.D. 2026-May-30 00:00:00.0000, -4.525143830598291E+08, 2.014844290940497E+08, 6.287977841490716E+06,
2461197.500000000, A.D. 2026-Jun-06 00:00:00.0000, -4.561812221325070E+08, 1.928053417894429E+08, 8.700324092777699E+06,
2461204.500000000, A.D. 2026-Jun-13 00:00:00.0000, -4.596657797948078E+08, 1.840493819787008E+08, 1.110919287016497E+07,
2461211.500000000, A.D. 2026-Jun-20 00:00:00.0000, -4.629665983976122E+08, 1.752200195985193E+08, 1.351361956701232E+07,
2461218.500000000, A.D. 2026-Jun-27 00:00:00.0000, -4.660822854320779E+08, 1.663207531477979E+08, 1.591264045932961E+07,
2461225.500000000, A.D. 2026-Jul-04 00:00:00.0000, -4.690115138862560E+08, 1.573551089028881E+08, 1.830529297740556E+07,
2461232.500000000, A.D. 2026-Jul-11 00:00:00.0000, -4.717530227143717E+08, 1.483266400240088E+08, 2.069061598069701E+07,
2461239.500000000, A.D. 2026-Jul-18 00:00:00.0000, -4.743056173263416E+08, 1.392389255791822E+08, 2.306765002948058E+07,
2461246.500000000, A.D. 2026-Jul-25 00:00:00.0000, -4.766681700728533E+08, 1.300955694886315E+08, 2.543543765119205E+07,
2461253.500000000, A.D. 2026-Aug-01 00:00:00.0000, -4.788396206774540E+08, 1.209001993414029E+08, 2.779302359307242E+07,
2461260.500000000, A.D. 2026-Aug-08 00:00:00.0000, -4.808189764002332E+08, 1.116564650479942E+08, 3.013945503846561E+07,
2461267.500000000, A.D. 2026-Aug-15 00:00:00.0000, -4.826053115174534E+08, 1.023680377788809E+08, 3.247378178550474E+07,
2461274.500000000, A.D. 2026-Aug-22 00:00:00.0000, -4.841977668777061E+08, 9.303861040946163E+07, 3.479505655778897E+07,
2461281.500000000, A.D. 2026-Aug-29 00:00:00.0000, -4.855955518242788E+08, 8.367189809791306E+07, 3.710233554484171E+07,
2461288.500000000, A.D. 2026-Sep-05 00:00:00.0000, -4.867979463511974E+08, 7.427163612812118E+07, 3.939467874243876E+07,
2461295.500000000, A.D. 2026-Sep-12 00:00:00.0000, -4.878043010368791E+08, 6.484157751389906E+07, 4.167115007176951E+07,
$$EOE